HULIANWANG DIGUI-01     
1 62323U 24240A   26061.92864430  .00000016  00000+0  39728-5 0  9999
2 62323  86.5026  19.0607 0001923  86.6226 273.5128 13.24420334 58572
HULIANWANG DIGUI-02     
1 62324U 24240B   26061.93610831  .00000014  00000+0 -45634-6 0  9998
2 62324  86.5054  19.1875 0001839  90.2704 269.8641 13.24421938 58580
HULIANWANG DIGUI-03     
1 62325U 24240C   26061.92097574  .00000053  00000+0  88287-4 0  9992
2 62325  86.5008  18.9833 0002006  85.5574 274.5789 13.24421996 58579
HULIANWANG DIGUI-04     
1 62326U 24240D   26061.91345366  .00000056  00000+0  97081-4 0  9992
2 62326  86.5017  19.0172 0002046  86.2972 273.8396 13.24421651 58576
HULIANWANG DIGUI-05     
1 62327U 24240E   26061.90594590  .00000067  00000+0  12182-3 0  9997
2 62327  86.5068  19.2380 0002082  85.3737 274.7635 13.24420857 58578
HULIANWANG DIGUI-06     
1 62328U 24240F   26061.96628731  .00000041  00000+0  62507-4 0  9998
2 62328  86.5006  18.9380 0002013  89.8542 270.2823 13.24422691 58583
HULIANWANG DIGUI-07     
1 62329U 24240G   26061.95882607  .00000035  00000+0  46753-4 0  9990
2 62329  86.4977  18.8093 0001993  88.0555 272.0808 13.24420835 58582
HULIANWANG DIGUI-08     
1 62330U 24240H   26061.97395533  .00000057  00000+0  98658-4 0  9996
2 62330  86.5060  19.1728 0002117  86.8242 273.3135 13.24420739 58585
HULIANWANG DIGUI-09     
1 62331U 24240J   26061.95120170  .00000027  00000+0  28145-4 0  9999
2 62331  86.5026  19.0764 0001943  90.0391 270.0966 13.24422100 58574
HULIANWANG DIGUI-10     
1 62332U 24240K   26061.94368622  .00000019  00000+0  92786-5 0  9999
2 62332  86.5056  19.2008 0001936  92.1580 267.9776 13.24421502 58575
HULIANWANG DIGUI-11     
1 62971U 25030A   26061.93159258 -.00000084  00000+0  86520-4 0  9999
2 62971  49.9993 256.9381 0000757 160.6738 199.4163 13.29337609 51725
HULIANWANG DIGUI-12     
1 62972U 25030B   26061.93983702 -.00000086  00000+0  81750-4 0  9991
2 62972  50.0009 257.0273 0000873 154.3942 205.6974 13.29339766 51721
HULIANWANG DIGUI-13     
1 62973U 25030C   26061.92320714 -.00000095  00000+0  61633-4 0  9997
2 62973  50.0012 256.9525 0000710 146.4689 213.6229 13.29337696 51726
HULIANWANG DIGUI-14     
1 62974U 25030D   26061.89820584 -.00000087  00000+0  80785-4 0  9994
2 62974  50.0017 256.8403 0000794 145.9535 214.1388 13.29337439 51729
HULIANWANG DIGUI-15     
1 62975U 25030E   26061.91488906 -.00000086  00000+0  82204-4 0  9993
2 62975  50.0012 256.9118 0000696 153.7096 206.3812 13.29337655 51724
HULIANWANG DIGUI-16     
1 62976U 25030F   26061.96498205 -.00000079  00000+0  96305-4 0  9991
2 62976  50.0035 256.5796 0000798 143.4555 216.6372 13.29338239 51732
