[{"OBJECT_NAME":"HULIANWANG DIGUI-01","OBJECT_ID":"2024-240A","EPOCH":"2026-03-02T22:17:14.867520","MEAN_MOTION":13.24420334,"ECCENTRICITY":0.0001923,"INCLINATION":86.5026,"RA_OF_ASC_NODE":19.0607,"ARG_OF_PERICENTER":86.6226,"MEAN_ANOMALY":273.5128,"EPHEMERIS_TYPE":0,"CLASSIFICATION_TYPE":"U","NORAD_CAT_ID":62323,"ELEMENT_SET_NO":999,"REV_AT_EPOCH":5857,"BSTAR":3.972767e-6,"MEAN_MOTION_DOT":1.6e-7,"MEAN_MOTION_DDOT":0},{"OBJECT_NAME":"HULIANWANG DIGUI-02","OBJECT_ID":"2024-240B","EPOCH":"2026-03-02T22:27:59.757984","MEAN_MOTION":13.24421938,"ECCENTRICITY":0.0001839,"INCLINATION":86.5054,"RA_OF_ASC_NODE":19.1875,"ARG_OF_PERICENTER":90.2704,"MEAN_ANOMALY":269.8641,"EPHEMERIS_TYPE":0,"CLASSIFICATION_TYPE":"U","NORAD_CAT_ID":62324,"ELEMENT_SET_NO":999,"REV_AT_EPOCH":5858,"BSTAR":-4.56344e-7,"MEAN_MOTION_DOT":1.4e-7,"MEAN_MOTION_DDOT":0},{"OBJECT_NAME":"HULIANWANG DIGUI-03","OBJECT_ID":"2024-240C","EPOCH":"2026-03-02T22:06:12.303936","MEAN_MOTION":13.24421996,"ECCENTRICITY":0.00020066,"INCLINATION":86.5008,"RA_OF_ASC_NODE":18.9833,"ARG_OF_PERICENTER":85.5574,"MEAN_ANOMALY":274.5789,"EPHEMERIS_TYPE":0,"CLASSIFICATION_TYPE":"U","NORAD_CAT_ID":62325,"ELEMENT_SET_NO":999,"REV_AT_EPOCH":5857,"BSTAR":8.8286595e-5,"MEAN_MOTION_DOT":5.3e-7,"MEAN_MOTION_DDOT":0},{"OBJECT_NAME":"HULIANWANG DIGUI-04","OBJECT_ID":"2024-240D","EPOCH":"2026-03-02T21:55:22.396224","MEAN_MOTION":13.24421651,"ECCENTRICITY":0.00020467,"INCLINATION":86.5017,"RA_OF_ASC_NODE":19.0172,"ARG_OF_PERICENTER":86.2972,"MEAN_ANOMALY":273.8396,"EPHEMERIS_TYPE":0,"CLASSIFICATION_TYPE":"U","NORAD_CAT_ID":62326,"ELEMENT_SET_NO":999,"REV_AT_EPOCH":5857,"BSTAR":9.7081392e-5,"MEAN_MOTION_DOT":5.6e-7,"MEAN_MOTION_DDOT":0},{"OBJECT_NAME":"HULIANWANG DIGUI-05","OBJECT_ID":"2024-240E","EPOCH":"2026-03-02T21:44:33.725760","MEAN_MOTION":13.24420857,"ECCENTRICITY":0.00020823,"INCLINATION":86.5068,"RA_OF_ASC_NODE":19.238,"ARG_OF_PERICENTER":85.3737,"MEAN_ANOMALY":274.7635,"EPHEMERIS_TYPE":0,"CLASSIFICATION_TYPE":"U","NORAD_CAT_ID":62327,"ELEMENT_SET_NO":999,"REV_AT_EPOCH":5857,"BSTAR":0.00012182213,"MEAN_MOTION_DOT":6.7e-7,"MEAN_MOTION_DDOT":0},{"OBJECT_NAME":"HULIANWANG DIGUI-06","OBJECT_ID":"2024-240F","EPOCH":"2026-03-02T23:11:27.223584","MEAN_MOTION":13.24422691,"ECCENTRICITY":0.00020131,"INCLINATION":86.5006,"RA_OF_ASC_NODE":18.938,"ARG_OF_PERICENTER":89.8542,"MEAN_ANOMALY":270.2823,"EPHEMERIS_TYPE":0,"CLASSIFICATION_TYPE":"U","NORAD_CAT_ID":62328,"ELEMENT_SET_NO":999,"REV_AT_EPOCH":5858,"BSTAR":6.2506684e-5,"MEAN_MOTION_DOT":4.1e-7,"MEAN_MOTION_DDOT":0},{"OBJECT_NAME":"HULIANWANG DIGUI-07","OBJECT_ID":"2024-240G","EPOCH":"2026-03-02T23:00:42.572448","MEAN_MOTION":13.24420835,"ECCENTRICITY":0.00019931,"INCLINATION":86.4977,"RA_OF_ASC_NODE":18.8093,"ARG_OF_PERICENTER":88.0555,"MEAN_ANOMALY":272.0808,"EPHEMERIS_TYPE":0,"CLASSIFICATION_TYPE":"U","NORAD_CAT_ID":62329,"ELEMENT_SET_NO":999,"REV_AT_EPOCH":5858,"BSTAR":4.6753121e-5,"MEAN_MOTION_DOT":3.5e-7,"MEAN_MOTION_DDOT":0},{"OBJECT_NAME":"HULIANWANG DIGUI-08","OBJECT_ID":"2024-240H","EPOCH":"2026-03-02T23:22:29.740512","MEAN_MOTION":13.24420739,"ECCENTRICITY":0.00021176,"INCLINATION":86.506,"RA_OF_ASC_NODE":19.1728,"ARG_OF_PERICENTER":86.8242,"MEAN_ANOMALY":273.3135,"EPHEMERIS_TYPE":0,"CLASSIFICATION_TYPE":"U","NORAD_CAT_ID":62330,"ELEMENT_SET_NO":999,"REV_AT_EPOCH":5858,"BSTAR":9.8658436e-5,"MEAN_MOTION_DOT":5.7e-7,"MEAN_MOTION_DDOT":0},{"OBJECT_NAME":"HULIANWANG DIGUI-09","OBJECT_ID":"2024-240J","EPOCH":"2026-03-02T22:49:43.826880","MEAN_MOTION":13.244221,"ECCENTRICITY":0.00019432,"INCLINATION":86.5026,"RA_OF_ASC_NODE":19.0764,"ARG_OF_PERICENTER":90.0391,"MEAN_ANOMALY":270.0966,"EPHEMERIS_TYPE":0,"CLASSIFICATION_TYPE":"U","NORAD_CAT_ID":62331,"ELEMENT_SET_NO":999,"REV_AT_EPOCH":5857,"BSTAR":2.8145196e-5,"MEAN_MOTION_DOT":2.7e-7,"MEAN_MOTION_DDOT":0},{"OBJECT_NAME":"HULIANWANG DIGUI-10","OBJECT_ID":"2024-240K","EPOCH":"2026-03-02T22:38:54.489408","MEAN_MOTION":13.24421502,"ECCENTRICITY":0.00019362,"INCLINATION":86.5056,"RA_OF_ASC_NODE":19.2008,"ARG_OF_PERICENTER":92.158,"MEAN_ANOMALY":267.9776,"EPHEMERIS_TYPE":0,"CLASSIFICATION_TYPE":"U","NORAD_CAT_ID":62332,"ELEMENT_SET_NO":999,"REV_AT_EPOCH":5857,"BSTAR":9.27858e-6,"MEAN_MOTION_DOT":1.9e-7,"MEAN_MOTION_DDOT":0},{"OBJECT_NAME":"HULIANWANG DIGUI-11","OBJECT_ID":"2025-030A","EPOCH":"2026-03-02T22:21:29.598912","MEAN_MOTION":13.29337609,"ECCENTRICITY":7.576e-5,"INCLINATION":49.9993,"RA_OF_ASC_NODE":256.9381,"ARG_OF_PERICENTER":160.6738,"MEAN_ANOMALY":199.4163,"EPHEMERIS_TYPE":0,"CLASSIFICATION_TYPE":"U","NORAD_CAT_ID":62971,"ELEMENT_SET_NO":999,"REV_AT_EPOCH":5172,"BSTAR":8.652043e-5,"MEAN_MOTION_DOT":-8.4e-7,"MEAN_MOTION_DDOT":0},{"OBJECT_NAME":"HULIANWANG DIGUI-12","OBJECT_ID":"2025-030B","EPOCH":"2026-03-02T22:33:21.918528","MEAN_MOTION":13.29339766,"ECCENTRICITY":8.732e-5,"INCLINATION":50.0009,"RA_OF_ASC_NODE":257.0273,"ARG_OF_PERICENTER":154.3942,"MEAN_ANOMALY":205.6974,"EPHEMERIS_TYPE":0,"CLASSIFICATION_TYPE":"U","NORAD_CAT_ID":62972,"ELEMENT_SET_NO":999,"REV_AT_EPOCH":5172,"BSTAR":8.1749662e-5,"MEAN_MOTION_DOT":-8.6e-7,"MEAN_MOTION_DDOT":0},{"OBJECT_NAME":"HULIANWANG DIGUI-13","OBJECT_ID":"2025-030C","EPOCH":"2026-03-02T22:09:25.096896","MEAN_MOTION":13.29337696,"ECCENTRICITY":7.101e-5,"INCLINATION":50.0012,"RA_OF_ASC_NODE":256.9525,"ARG_OF_PERICENTER":146.4689,"MEAN_ANOMALY":213.6229,"EPHEMERIS_TYPE":0,"CLASSIFICATION_TYPE":"U","NORAD_CAT_ID":62973,"ELEMENT_SET_NO":999,"REV_AT_EPOCH":5172,"BSTAR":6.1632934e-5,"MEAN_MOTION_DOT":-9.5e-7,"MEAN_MOTION_DDOT":0},{"OBJECT_NAME":"HULIANWANG DIGUI-14","OBJECT_ID":"2025-030D","EPOCH":"2026-03-02T21:33:24.984576","MEAN_MOTION":13.29337439,"ECCENTRICITY":7.94e-5,"INCLINATION":50.0017,"RA_OF_ASC_NODE":256.8403,"ARG_OF_PERICENTER":145.9535,"MEAN_ANOMALY":214.1388,"EPHEMERIS_TYPE":0,"CLASSIFICATION_TYPE":"U","NORAD_CAT_ID":62974,"ELEMENT_SET_NO":999,"REV_AT_EPOCH":5172,"BSTAR":8.0784525e-5,"MEAN_MOTION_DOT":-8.7e-7,"MEAN_MOTION_DDOT":0},{"OBJECT_NAME":"HULIANWANG DIGUI-15","OBJECT_ID":"2025-030E","EPOCH":"2026-03-02T21:57:26.414784","MEAN_MOTION":13.29337655,"ECCENTRICITY":6.966e-5,"INCLINATION":50.0012,"RA_OF_ASC_NODE":256.9118,"ARG_OF_PERICENTER":153.7096,"MEAN_ANOMALY":206.3812,"EPHEMERIS_TYPE":0,"CLASSIFICATION_TYPE":"U","NORAD_CAT_ID":62975,"ELEMENT_SET_NO":999,"REV_AT_EPOCH":5172,"BSTAR":8.2203729e-5,"MEAN_MOTION_DOT":-8.6e-7,"MEAN_MOTION_DDOT":0},{"OBJECT_NAME":"HULIANWANG DIGUI-16","OBJECT_ID":"2025-030F","EPOCH":"2026-03-02T23:09:34.449120","MEAN_MOTION":13.29338239,"ECCENTRICITY":7.983e-5,"INCLINATION":50.0035,"RA_OF_ASC_NODE":256.5796,"ARG_OF_PERICENTER":143.4555,"MEAN_ANOMALY":216.6372,"EPHEMERIS_TYPE":0,"CLASSIFICATION_TYPE":"U","NORAD_CAT_ID":62976,"ELEMENT_SET_NO":999,"REV_AT_EPOCH":5173,"BSTAR":9.6305388e-5,"MEAN_MOTION_DOT":-7.9e-7,"MEAN_MOTION_DDOT":0}]
